NORAD_CAT_ID,OBJECT_NAME,OBJECT_TYPE,EPOCH,MEAN_MOTION,ECCENTRICITY,INCLINATION,RA_OF_ASC_NODE,ARG_OF_PERICENTER,MEAN_ANOMALY,BSTAR,MEAN_MOTION_DOT,MEAN_MOTION_DDOT,TLE_LINE0,TLE_LINE1,TLE_LINE2,SEMIMAJOR_AXIS,PERIOD,APOGEE,PERIGEE,DECAYED
56457.0,STARLINK-5994,PAYLOAD,2023-06-07 11:56:15,15.69913082,0.0003504,69.9987,167.2289,266.9023,93.1771,1.95e-05,2.131e-05,0.0,0 STARLINK-5994,1 56457U 23064K   23158.49739893  .00002131  00000-0  19500-4 0  9999,2 56457  69.9987 167.2289 0003504 266.9023  93.1771 15.69913082  4389,6737.283,91.725,361.508,356.787,0.0
56457.0,STARLINK-5994,PAYLOAD,2023-06-07 18:03:15,15.69925069,0.0003413,69.9979,166.5115,262.8473,97.2335,1.5002e-05,1.591e-05,0.0,0 STARLINK-5994,1 56457U 23064K   23158.75225807  .00001591  00000-0  15002-4 0  9995,2 56457  69.9979 166.5115 0003413 262.8473  97.2335 15.69925069  4427,6737.248,91.724,361.413,356.814,0.0
56457.0,STARLINK-5994,PAYLOAD,2023-06-08 10:52:02,15.70486368,0.000768,69.9971,164.5396,26.7404,333.4186,0.00067911,0.00084319,0.0,0 STARLINK-5994,1 56457U 23064K   23159.45281026  .00084319  00000-0  67911-3 0  9992,2 56457  69.9971 164.5396 0007680  26.7404 333.4186 15.70486368  4884,6735.643,91.691,362.681,352.335,0.0
56457.0,STARLINK-5994,PAYLOAD,2023-06-08 22:00:00,15.68196323,0.0003491,70.0004,163.2422,267.3398,188.9865,-0.0086643,-0.00874678,0.0,0 STARLINK-5994,1 56457U 23064K   23159.91667824 -.00874678  00000-0 -86643-2 0  9996,2 56457  70.0004 163.2422 0003491 267.3398 188.9865 15.68196323  4963,6742.199,91.825,366.417,361.71,0.0
56457.0,STARLINK-5994,PAYLOAD,2023-06-09 14:00:01,15.66928772,0.0003611,70.0001,161.3745,272.3606,344.9308,-0.0099876,-0.00963928,0.0,0 STARLINK-5994,1 56457U 23064K   23160.58334491 -.00963928  00000-0 -99876-2 0  9991,2 56457  70.0001 161.3745 0003611 272.3606 344.9308 15.66928772  5066,6745.834,91.9,370.135,365.263,0.0
56457.0,STARLINK-5994,PAYLOAD,2023-06-09 22:00:00,15.66243289,0.0003795,70.0002,160.4421,266.8567,69.7537,-0.0094551,-0.00894068,0.0,0 STARLINK-5994,1 56457U 23064K   23160.91667824 -.00894068  00000-0 -94551-2 0  9990,2 56457  70.0002 160.4421 0003795 266.8567  69.7537 15.66243289  1307,6747.802,91.94,372.228,367.107,0.0
56457.0,STARLINK-5994,PAYLOAD,2023-06-10 06:00:02,15.65577678,0.0003729,70.0003,159.5105,271.7528,143.466,-0.0097015,-0.00893162,0.0,0 STARLINK-5994,1 56457U 23064K   23161.25002315 -.00893162  00000-0 -97015-2 0  9998,2 56457  70.0003 159.5105 0003729 271.7528 143.4660 15.65577678  5161,6749.715,91.979,374.097,369.063,0.0
56457.0,STARLINK-5994,PAYLOAD,2023-06-10 14:00:01,15.64980425,0.0003456,70.0001,158.5797,273.9786,218.9036,-0.010971,-0.00977407,0.0,0 STARLINK-5994,1 56457U 23064K   23161.58334491 -.00977407  00000-0 -10971-1 0  9997,2 56457  70.0001 158.5797 0003456 273.9786 218.9036 15.64980425  1306,6751.432,92.014,375.63,370.964,0.0
56457.0,STARLINK-5994,PAYLOAD,2023-06-10 22:00:00,15.64291482,0.0003417,70.0004,157.6502,265.1341,304.7211,-0.010306,-0.00900497,0.0,0 STARLINK-5994,1 56457U 23064K   23161.91667824 -.00900497  00000-0 -10306-1 0  9990,2 56457  70.0004 157.6502 0003417 265.1341 304.7211 15.64291482  5277,6753.414,92.054,377.587,372.972,0.0
56457.0,STARLINK-5994,PAYLOAD,2023-06-11 14:00:01,15.63016153,0.0003501,69.9999,155.7934,272.0862,89.3503,-0.011705,-0.00965853,0.0,0 STARLINK-5994,1 56457U 23064K   23162.58334491 -.00965853  00000-0 -11705-1 0  9996,2 56457  69.9999 155.7934 0003501 272.0862  89.3503 15.63016153  5374,6757.087,92.13,381.318,376.587,0.0
56457.0,STARLINK-5994,PAYLOAD,2023-06-11 22:00:00,15.62336895,0.0003379,70.0,154.8662,267.3346,168.7256,-0.011211,-0.00906389,0.0,0 STARLINK-5994,1 56457U 23064K   23162.91667824 -.00906389  00000-0 -11211-1 0  9993,2 56457  70.0000 154.8662 0003379 267.3346 168.7256 15.62336895  1308,6759.046,92.17,383.195,378.627,0.0
56457.0,STARLINK-5994,PAYLOAD,2023-06-12 06:00:00,15.61652692,0.0003285,69.9999,153.94,273.7581,236.1563,-0.011001,-0.0086935,0.0,0 STARLINK-5994,1 56457U 23064K   23163.25001157 -.00869350  00000-0 -11001-1 0  9995,2 56457  69.9999 153.9400 0003285 273.7581 236.1563 15.61652692  5489,6761.02,92.21,385.106,380.664,0.0
56457.0,STARLINK-5994,PAYLOAD,2023-06-12 14:00:01,15.6105418,0.0003196,69.9997,153.0147,272.9625,310.0539,-0.01256,-0.00960461,0.0,0 STARLINK-5994,1 56457U 23064K   23163.58335648 -.00960461  00000-0 -12560-1 0  9992,2 56457  69.9997 153.0147 0003196 272.9625 310.0539 15.61054180  1307,6762.748,92.245,386.774,382.451,0.0
56457.0,STARLINK-5994,PAYLOAD,2023-06-12 22:00:00,15.60391517,0.0003399,69.9999,152.0905,266.0809,29.1409,-0.012346,-0.00923917,0.0,0 STARLINK-5994,1 56457U 23064K   23163.91667824 -.00923917  00000-0 -12346-1 0  9990,2 56457  69.9999 152.0905 0003399 266.0809  29.1409 15.60391517  5588,6764.662,92.285,388.827,384.228,0.0
56457.0,STARLINK-5994,PAYLOAD,2023-06-13 14:00:01,15.59086965,0.0003266,69.9991,150.2444,274.2847,163.1396,-0.013246,-0.00941198,0.0,0 STARLINK-5994,1 56457U 23064K   23164.58334491 -.00941198  00000-0 -13246-1 0  9996,2 56457  69.9991 150.2444 0003266 274.2847 163.1396 15.59086965  1300,6768.435,92.362,392.511,388.09,0.0
56457.0,STARLINK-5994,PAYLOAD,2023-06-13 22:00:00,15.58433568,0.0003185,69.9994,149.3228,266.9555,240.3897,-0.013252,-0.00920541,0.0,0 STARLINK-5994,1 56457U 23064K   23164.91667824 -.00920541  00000-0 -13252-1 0  9998,2 56457  69.9994 149.3228 0003185 266.9555 240.3897 15.58433568  5746,6770.327,92.4,394.348,390.036,0.0
56457.0,STARLINK-5994,PAYLOAD,2023-06-14 14:00:01,15.57132086,0.0003221,69.9991,147.4818,269.6879,15.1678,-0.014363,-0.00947253,0.0,0 STARLINK-5994,1 56457U 23064K   23165.58334491 -.00947253  00000-0 -14363-1 0  9996,2 56457  69.9991 147.4818 0003221 269.6879  15.1678 15.57132086  1300,6774.099,92.478,398.146,393.782,0.0
56457.0,STARLINK-5994,PAYLOAD,2023-06-14 22:00:00,15.56479426,0.0003449,69.9993,146.5631,267.0756,85.3523,-0.014307,-0.00923264,0.0,0 STARLINK-5994,1 56457U 23064K   23165.91667824 -.00923264  00000-0 -14307-1 0  9996,2 56457  69.9993 146.5631 0003449 267.0756  85.3523 15.56479426  5890,6775.993,92.516,400.195,395.52,0.0
56457.0,STARLINK-5994,PAYLOAD,2023-06-15 14:00:01,15.55166591,0.0003303,69.9989,144.7277,273.1063,212.1435,-0.015198,-0.00933074,0.0,0 STARLINK-5994,1 56457U 23064K   23166.58334491 -.00933074  00000-0 -15198-1 0  9990,2 56457  69.9989 144.7277 0003303 273.1063 212.1435 15.55166591  1308,6779.805,92.595,403.91,399.431,0.0
56457.0,STARLINK-5994,PAYLOAD,2023-06-15 20:00:01,15.546558,0.0003446,69.9992,144.0405,268.1715,176.0762,-0.014453,-0.00876187,0.0,0 STARLINK-5994,1 56457U 23064K   23166.83334491 -.00876187  00000-0 -14453-1 0  9992,2 56457  69.9992 144.0405 0003446 268.1715 176.0762 15.54655800  1300,6781.29,92.625,405.492,400.819,0.0
56457.0,STARLINK-5994,PAYLOAD,2023-06-16 06:00:00,15.53823696,0.0003517,69.9994,142.8961,272.3583,342.5864,-0.01473,-0.00867031,0.0,0 STARLINK-5994,1 56457U 23064K   23167.25001157 -.00867031  00000-0 -14730-1 0  9995,2 56457  69.9994 142.8961 0003517 272.3583 342.5864 15.53823696  6109,6783.711,92.675,407.962,403.19,0.0
56457.0,STARLINK-5994,PAYLOAD,2023-06-16 14:00:01,15.53213767,0.0003588,69.999,141.9814,271.051,47.5462,-0.016428,-0.00938462,0.0,0 STARLINK-5994,1 56457U 23064K   23167.58334491 -.00938462  00000-0 -16428-1 0  9994,2 56457  69.9990 141.9814 0003588 271.0510  47.5462 15.53213767  1301,6785.487,92.711,409.787,404.917,0.0
56457.0,STARLINK-5994,PAYLOAD,2023-06-16 22:00:00,15.52568274,0.0003574,69.9994,141.068,267.6452,113.8294,-0.01664,-0.0092946,0.0,0 STARLINK-5994,1 56457U 23064K   23167.91667824 -.00929460  00000-0 -16640-1 0  9994,2 56457  69.9994 141.0680 0003574 267.6452 113.8294 15.52568274  6207,6787.368,92.75,411.658,406.807,0.0
56457.0,STARLINK-5994,PAYLOAD,2023-06-17 10:17:50,15.53165305,0.000324,69.9987,139.6698,267.4745,92.6071,-0.0042625,-0.00260009,0.0,0 STARLINK-5994,1 56457U 23064K   23168.42905791 -.00260009  00000-0 -42625-2 0  9999,2 56457  69.9987 139.6698 0003240 267.4745  92.6071 15.53165305  5939,6785.628,92.714,409.692,405.295,0.0
56457.0,STARLINK-5994,PAYLOAD,2023-06-17 14:00:01,15.51251288,0.0003417,69.9994,139.2434,270.3808,234.5284,-0.0013334,-0.000778,0.0,0 STARLINK-5994,1 56457U 23064K   23168.58334491 -.00077800  00000-0 -13334-2 0  9999,2 56457  69.9994 139.2434 0003417 270.3808 234.5284 15.51251288  6310,6791.209,92.828,415.394,410.753,0.0
56457.0,STARLINK-5994,PAYLOAD,2023-06-17 21:07:28,15.52695936,0.0002302,69.9982,138.4355,287.5464,72.5471,-0.0041324,-0.00248163,0.0,0 STARLINK-5994,1 56457U 23064K   23168.88018786 -.00248163  00000-0 -41324-2 0  9990,2 56457  69.9982 138.4355 0002302 287.5464  72.5471 15.52695936  6007,6786.996,92.742,410.423,407.298,0.0
56457.0,STARLINK-5994,PAYLOAD,2023-06-17 22:00:01,15.51214254,0.0003439,69.9998,138.3322,264.4234,301.4529,0.00056169,0.00032955,0.0,0 STARLINK-5994,1 56457U 23064K   23168.91668981  .00032955  00000-0  56169-3 0  9994,2 56457  69.9998 138.3322 0003439 264.4234 301.4529 15.51214254  6364,6791.317,92.831,415.517,410.846,0.0
56457.0,STARLINK-5994,PAYLOAD,2023-06-18 14:00:01,15.51252381,0.0003442,69.9995,136.5096,266.9156,60.797,-0.0012752,-0.00074446,0.0,0 STARLINK-5994,1 56457U 23064K   23169.58335648 -.00074446  00000-0 -12752-2 0  9991,2 56457  69.9995 136.5096 0003442 266.9156  60.7970 15.51252381  6462,6791.205,92.828,415.408,410.733,0.0
56457.0,STARLINK-5994,PAYLOAD,2023-06-18 22:00:00,15.51312259,0.0003588,70.0,135.5984,265.1673,123.3738,-0.0039183,-0.00224643,0.0,0 STARLINK-5994,1 56457U 23064K   23169.91667824 -.00224643  00000-0 -39183-2 0  9995,2 56457  70.0000 135.5984 0003588 265.1673 123.3738 15.51312259  6518,6791.031,92.825,415.332,410.459,0.0
56457.0,STARLINK-5994,PAYLOAD,2023-06-19 06:00:00,15.51227994,0.0003382,70.0002,134.6872,273.8632,175.6106,-0.016752,-0.00894901,0.0,0 STARLINK-5994,1 56457U 23064K   23170.25001157 -.00894901  00000-0 -16752-1 0  9991,2 56457  70.0002 134.6872 0003382 273.8632 175.6106 15.51227994  6575,6791.277,92.83,415.438,410.845,0.0
